*******************************************************************************
Ephemeris / WWW_USER Thu May 23 08:25:03 2024 Pasadena, USA      / Horizons    
*******************************************************************************
Target body name: (2018 RB1)                      {source: JPL#5}
Center body name: Earth (399)                     {source: DE441}
Center-site name: Gemini South Obs., Cerro Pachon
*******************************************************************************
Start time      : A.D. 2018-Oct-02 22:53:00.0000 UT      
Stop  time      : A.D. 2018-Oct-03 10:10:00.0000 UT      
Step-size       : 1 minutes
*******************************************************************************
Target pole/equ : undefined
Target radii    : undefined                                                    
Center geodetic : 289.2634, -30.2406227, 2.71233  {E-lon(deg),Lat(deg),Alt(km)}
Center cylindric: 289.2634,5517.21435,-3194.81213 {E-lon(deg),Dxy(km),Dz(km)}
Center pole/equ : ITRF93                          {East-longitude positive}
Center radii    : 6378.137, 6378.137, 6356.752 km {Equator_a, b, pole_c}       
Target primary  : Sun
Vis. interferer : MOON (R_eq= 1737.400) km        {source: DE441}
Rel. light bend : Sun                             {source: DE441}
Rel. lght bnd GM: 1.3271E+11 km^3/s^2                                          
Small-body perts: Yes                             {source: SB441-N16}
Atmos refraction: NO (AIRLESS)
RA format       : HMS
Time format     : CAL 
Calendar mode   : Mixed Julian/Gregorian
RTS-only print  : NO       
EOP file        : eop.240522.p240815                                           
EOP coverage    : DATA-BASED 1962-JAN-20 TO 2024-MAY-22. PREDICTS-> 2024-AUG-14
Units conversion: 1 au= 149597870.700 km, c= 299792.458 km/s, 1 day= 86400.0 s 
Table cut-offs 1: Elevation (-90.0deg=NO ),Airmass (>38.000=NO), Daylight (YES)
Table cut-offs 2: Solar elongation (  0.0,180.0=NO ),Local Hour Angle( 0.0=NO )
Table cut-offs 3: RA/DEC angular rate (     0.0=NO )                           
*******************************************************************************
Initial IAU76/J2000 heliocentric ecliptic osculating elements (au, days, deg.):
  EPOCH=  2458368.5 ! 2018-Sep-07.00 (TDB)         Residual RMS= .299          
   EC= .2816093255492492   QR= .7991213126369837   TP= 2458438.7854507864      
   OM= 166.9631715555783   W=  267.8210074013559   IN= 5.127543488636634       
  Equivalent ICRF heliocentric cartesian coordinates (au, au/d):
   X= 9.883258176612897E-01  Y=-2.654573099408967E-01  Z=-1.095366816313374E-01
  VX= 1.112505236628486E-04 VY= 1.667631342697191E-02 VZ= 5.559084906068471E-03
Asteroid physical parameters (km, seconds, rotational period in hours):        
   GM= n.a.                RAD= n.a.               ROTPER= n.a.                
   H= 27.9                 G= .150                 B-V= n.a.                   
                           ALBEDO= n.a.            STYP= n.a.                  
*******************************************************************************
 Date__(UT)__HR:MN     R.A._________(ICRF)_________DEC
******************************************************
$$SOE
 2018-Oct-03 07:05  m  10 53 13.320523 -13 09 58.08224
 2018-Oct-03 07:06  m  10 53 13.333003 -13 09 57.70357
 2018-Oct-03 07:07  m  10 53 13.345400 -13 09 57.32506
 2018-Oct-03 07:08  m  10 53 13.357713 -13 09 56.94669
 2018-Oct-03 07:09  m  10 53 13.369943 -13 09 56.56847
 2018-Oct-03 07:10  m  10 53 13.382090 -13 09 56.19039
 2018-Oct-03 07:11  m  10 53 13.394153 -13 09 55.81247
 2018-Oct-03 07:12  m  10 53 13.406133 -13 09 55.43469
 2018-Oct-03 07:13  m  10 53 13.418028 -13 09 55.05705
 2018-Oct-03 07:14  m  10 53 13.429839 -13 09 54.67955
 2018-Oct-03 07:15  m  10 53 13.441566 -13 09 54.30220
 2018-Oct-03 07:16  m  10 53 13.453209 -13 09 53.92498
 2018-Oct-03 07:17  m  10 53 13.464767 -13 09 53.54790
 2018-Oct-03 07:18  m  10 53 13.476240 -13 09 53.17096
 2018-Oct-03 07:19  m  10 53 13.487628 -13 09 52.79416
 2018-Oct-03 07:20  m  10 53 13.498931 -13 09 52.41749
 2018-Oct-03 07:21  m  10 53 13.510149 -13 09 52.04095
 2018-Oct-03 07:22  m  10 53 13.521282 -13 09 51.66455
 2018-Oct-03 07:23  m  10 53 13.532329 -13 09 51.28827
 2018-Oct-03 07:24  m  10 53 13.543291 -13 09 50.91213
 2018-Oct-03 07:25  m  10 53 13.554166 -13 09 50.53611
 2018-Oct-03 07:26  m  10 53 13.564956 -13 09 50.16022
 2018-Oct-03 07:27  m  10 53 13.575660 -13 09 49.78446
 2018-Oct-03 07:28  m  10 53 13.586278 -13 09 49.40882
 2018-Oct-03 07:29  m  10 53 13.596809 -13 09 49.03330
 2018-Oct-03 07:30  m  10 53 13.607254 -13 09 48.65790
 2018-Oct-03 07:31  m  10 53 13.617612 -13 09 48.28263
 2018-Oct-03 07:32  m  10 53 13.627883 -13 09 47.90747
 2018-Oct-03 07:33  m  10 53 13.638068 -13 09 47.53243
 2018-Oct-03 07:34  m  10 53 13.648165 -13 09 47.15751
 2018-Oct-03 07:35  m  10 53 13.658176 -13 09 46.78270
 2018-Oct-03 07:36  m  10 53 13.668099 -13 09 46.40800
 2018-Oct-03 07:37  m  10 53 13.677935 -13 09 46.03342
 2018-Oct-03 07:38  m  10 53 13.687683 -13 09 45.65895
 2018-Oct-03 07:39  m  10 53 13.697344 -13 09 45.28459
 2018-Oct-03 07:40  m  10 53 13.706917 -13 09 44.91033
 2018-Oct-03 07:41  m  10 53 13.716403 -13 09 44.53618
 2018-Oct-03 07:42  m  10 53 13.725800 -13 09 44.16214
 2018-Oct-03 07:43  m  10 53 13.735109 -13 09 43.78821
 2018-Oct-03 07:44  m  10 53 13.744331 -13 09 43.41437
 2018-Oct-03 07:45  m  10 53 13.753463 -13 09 43.04064
 2018-Oct-03 07:46  m  10 53 13.762508 -13 09 42.66701
 2018-Oct-03 07:47  m  10 53 13.771464 -13 09 42.29347
 2018-Oct-03 07:48  m  10 53 13.780331 -13 09 41.92004
 2018-Oct-03 07:49  m  10 53 13.789110 -13 09 41.54670
 2018-Oct-03 07:50  m  10 53 13.797800 -13 09 41.17345
 2018-Oct-03 07:51  m  10 53 13.806401 -13 09 40.80030
 2018-Oct-03 07:52  m  10 53 13.814914 -13 09 40.42724
 2018-Oct-03 07:53  m  10 53 13.823337 -13 09 40.05428
 2018-Oct-03 07:54  m  10 53 13.831671 -13 09 39.68140
 2018-Oct-03 07:55  m  10 53 13.839915 -13 09 39.30861
 2018-Oct-03 07:56  m  10 53 13.848071 -13 09 38.93590
 2018-Oct-03 07:57  m  10 53 13.856137 -13 09 38.56329
 2018-Oct-03 07:58  m  10 53 13.864113 -13 09 38.19075
 2018-Oct-03 07:59  m  10 53 13.872000 -13 09 37.81830
 2018-Oct-03 08:00  m  10 53 13.879797 -13 09 37.44593
 2018-Oct-03 08:01  m  10 53 13.887505 -13 09 37.07364
 2018-Oct-03 08:02  m  10 53 13.895122 -13 09 36.70143
 2018-Oct-03 08:03  m  10 53 13.902650 -13 09 36.32930
 2018-Oct-03 08:04  m  10 53 13.910087 -13 09 35.95724
 2018-Oct-03 08:05  m  10 53 13.917435 -13 09 35.58526
 2018-Oct-03 08:06  m  10 53 13.924693 -13 09 35.21335
 2018-Oct-03 08:07  r  10 53 13.931860 -13 09 34.84151
 2018-Oct-03 08:08  m  10 53 13.938937 -13 09 34.46974
 2018-Oct-03 08:09  m  10 53 13.945924 -13 09 34.09804
 2018-Oct-03 08:10  m  10 53 13.952820 -13 09 33.72641
 2018-Oct-03 08:11  m  10 53 13.959626 -13 09 33.35485
 2018-Oct-03 08:12  m  10 53 13.966342 -13 09 32.98335
 2018-Oct-03 08:13  m  10 53 13.972966 -13 09 32.61191
 2018-Oct-03 08:14  m  10 53 13.979501 -13 09 32.24054
 2018-Oct-03 08:15  m  10 53 13.985944 -13 09 31.86923
 2018-Oct-03 08:16  m  10 53 13.992297 -13 09 31.49797
 2018-Oct-03 08:17  m  10 53 13.998559 -13 09 31.12678
 2018-Oct-03 08:18  m  10 53 14.004730 -13 09 30.75564
 2018-Oct-03 08:19  m  10 53 14.010810 -13 09 30.38456
 2018-Oct-03 08:20  m  10 53 14.016800 -13 09 30.01353
 2018-Oct-03 08:21  m  10 53 14.022698 -13 09 29.64256
 2018-Oct-03 08:22  m  10 53 14.028506 -13 09 29.27163
 2018-Oct-03 08:23  m  10 53 14.034222 -13 09 28.90076
 2018-Oct-03 08:24  m  10 53 14.039847 -13 09 28.52993
 2018-Oct-03 08:25  m  10 53 14.045381 -13 09 28.15915
 2018-Oct-03 08:26  m  10 53 14.050824 -13 09 27.78842
 2018-Oct-03 08:27  m  10 53 14.056176 -13 09 27.41773
 2018-Oct-03 08:28  m  10 53 14.061437 -13 09 27.04709
 2018-Oct-03 08:29  m  10 53 14.066606 -13 09 26.67649
 2018-Oct-03 08:30  m  10 53 14.071684 -13 09 26.30592
 2018-Oct-03 08:31  m  10 53 14.076671 -13 09 25.93540
 2018-Oct-03 08:32  m  10 53 14.081566 -13 09 25.56491
 2018-Oct-03 08:33  m  10 53 14.086370 -13 09 25.19446
 2018-Oct-03 08:34  m  10 53 14.091083 -13 09 24.82405
 2018-Oct-03 08:35  m  10 53 14.095704 -13 09 24.45367
 2018-Oct-03 08:36  m  10 53 14.100234 -13 09 24.08332
 2018-Oct-03 08:37  m  10 53 14.104672 -13 09 23.71300
 2018-Oct-03 08:38  m  10 53 14.109019 -13 09 23.34271
 2018-Oct-03 08:39  m  10 53 14.113274 -13 09 22.97244
 2018-Oct-03 08:40  m  10 53 14.117438 -13 09 22.60221
 2018-Oct-03 08:41  m  10 53 14.121511 -13 09 22.23200
 2018-Oct-03 08:42  m  10 53 14.125492 -13 09 21.86181
 2018-Oct-03 08:43  m  10 53 14.129382 -13 09 21.49165
 2018-Oct-03 08:44  m  10 53 14.133180 -13 09 21.12150
 2018-Oct-03 08:45  m  10 53 14.136886 -13 09 20.75138
 2018-Oct-03 08:46  m  10 53 14.140501 -13 09 20.38127
 2018-Oct-03 08:47  m  10 53 14.144025 -13 09 20.01119
 2018-Oct-03 08:48  m  10 53 14.147457 -13 09 19.64111
 2018-Oct-03 08:49  m  10 53 14.150798 -13 09 19.27105
 2018-Oct-03 08:50  m  10 53 14.154047 -13 09 18.90101
 2018-Oct-03 08:51  m  10 53 14.157205 -13 09 18.53097
 2018-Oct-03 08:52  m  10 53 14.160271 -13 09 18.16095
 2018-Oct-03 08:53  m  10 53 14.163246 -13 09 17.79093
 2018-Oct-03 08:54  m  10 53 14.166130 -13 09 17.42092
 2018-Oct-03 08:55  m  10 53 14.168922 -13 09 17.05092
 2018-Oct-03 08:56  m  10 53 14.171623 -13 09 16.68092
 2018-Oct-03 08:57  m  10 53 14.174232 -13 09 16.31092
 2018-Oct-03 08:58 Am  10 53 14.176750 -13 09 15.94093
 2018-Oct-03 08:59 Am  10 53 14.179177 -13 09 15.57094
 2018-Oct-03 09:00 Am  10 53 14.181512 -13 09 15.20094
 2018-Oct-03 09:01 Am  10 53 14.183756 -13 09 14.83094
 2018-Oct-03 09:02 Am  10 53 14.185909 -13 09 14.46094
 2018-Oct-03 09:03 Am  10 53 14.187971 -13 09 14.09094
 2018-Oct-03 09:04 Am  10 53 14.189942 -13 09 13.72092
 2018-Oct-03 09:05 Am  10 53 14.191821 -13 09 13.35090
 2018-Oct-03 09:06 Am  10 53 14.193610 -13 09 12.98087
 2018-Oct-03 09:07 Am  10 53 14.195307 -13 09 12.61083
